CCSDS_OMM_VERS = 2.0
CREATION_DATE  = 
ORIGINATOR     = 

OBJECT_NAME    = STARLINK-36576
OBJECT_ID      = 2026-014C
CENTER_NAME    = EARTH
REF_FRAME      = TEME
TIME_SYSTEM    = UTC
MEAN_ELEMENT_THEORY = SGP/SGP4

EPOCH          = 2026-02-18T14:00:03.000384
MEAN_MOTION    = 15.75200743
ECCENTRICITY   = .00015673
INCLINATION    = 97.2836
RA_OF_ASC_NODE = 293.5807
ARG_OF_PERICENTER = 89.1198
MEAN_ANOMALY   = 353.7409

EPHEMERIS_TYPE = 0
CLASSIFICATION_TYPE = U
NORAD_CAT_ID   = 67534
ELEMENT_SET_NO = 999
REV_AT_EPOCH   = 561
BSTAR          = .4338541E-5
MEAN_MOTION_DOT = .518E-5
MEAN_MOTION_DDOT = 0

CCSDS_OMM_VERS = 2.0
CREATION_DATE  = 
ORIGINATOR     = 

OBJECT_NAME    = STARLINK-36574
OBJECT_ID      = 2026-014D
CENTER_NAME    = EARTH
REF_FRAME      = TEME
TIME_SYSTEM    = UTC
MEAN_ELEMENT_THEORY = SGP/SGP4

EPOCH          = 2026-02-18T14:00:03.000384
MEAN_MOTION    = 15.76892767
ECCENTRICITY   = .00019456
INCLINATION    = 97.2833
RA_OF_ASC_NODE = 293.6081
ARG_OF_PERICENTER = 71.0999
MEAN_ANOMALY   = 76.5438

EPHEMERIS_TYPE = 0
CLASSIFICATION_TYPE = U
NORAD_CAT_ID   = 67535
ELEMENT_SET_NO = 999
REV_AT_EPOCH   = 561
BSTAR          = -.13411263E-1
MEAN_MOTION_DOT = -.1882193E-1
MEAN_MOTION_DDOT = 0

CCSDS_OMM_VERS = 2.0
CREATION_DATE  = 
ORIGINATOR     = 

OBJECT_NAME    = STARLINK-36572
OBJECT_ID      = 2026-014E
CENTER_NAME    = EARTH
REF_FRAME      = TEME
TIME_SYSTEM    = UTC
MEAN_ELEMENT_THEORY = SGP/SGP4

EPOCH          = 2026-02-18T14:11:02.547744
MEAN_MOTION    = 15.75294010
ECCENTRICITY   = .00019198
INCLINATION    = 97.2818
RA_OF_ASC_NODE = 293.5308
ARG_OF_PERICENTER = 106.2080
MEAN_ANOMALY   = 253.9397

EPHEMERIS_TYPE = 0
CLASSIFICATION_TYPE = U
NORAD_CAT_ID   = 67536
ELEMENT_SET_NO = 999
REV_AT_EPOCH   = 556
BSTAR          = .17419946E-2
MEAN_MOTION_DOT = .269271E-2
MEAN_MOTION_DDOT = 0

CCSDS_OMM_VERS = 2.0
CREATION_DATE  = 
ORIGINATOR     = 

OBJECT_NAME    = STARLINK-36561
OBJECT_ID      = 2026-014F
CENTER_NAME    = EARTH
REF_FRAME      = TEME
TIME_SYSTEM    = UTC
MEAN_ELEMENT_THEORY = SGP/SGP4

EPOCH          = 2026-02-18T14:19:40.736064
MEAN_MOTION    = 15.75319240
ECCENTRICITY   = .00021653
INCLINATION    = 97.2847
RA_OF_ASC_NODE = 293.5225
ARG_OF_PERICENTER = 132.3558
MEAN_ANOMALY   = 227.7891

EPHEMERIS_TYPE = 0
CLASSIFICATION_TYPE = U
NORAD_CAT_ID   = 67537
ELEMENT_SET_NO = 999
REV_AT_EPOCH   = 556
BSTAR          = .21210329E-2
MEAN_MOTION_DOT = .330641E-2
MEAN_MOTION_DDOT = 0

CCSDS_OMM_VERS = 2.0
CREATION_DATE  = 
ORIGINATOR     = 

OBJECT_NAME    = STARLINK-36397
OBJECT_ID      = 2026-014G
CENTER_NAME    = EARTH
REF_FRAME      = TEME
TIME_SYSTEM    = UTC
MEAN_ELEMENT_THEORY = SGP/SGP4

EPOCH          = 2026-02-18T14:25:16.290336
MEAN_MOTION    = 15.75306764
ECCENTRICITY   = .00015924
INCLINATION    = 97.2845
RA_OF_ASC_NODE = 293.5178
ARG_OF_PERICENTER = 106.4365
MEAN_ANOMALY   = 253.7075

EPHEMERIS_TYPE = 0
CLASSIFICATION_TYPE = U
NORAD_CAT_ID   = 67538
ELEMENT_SET_NO = 999
REV_AT_EPOCH   = 556
BSTAR          = .19938118E-2
MEAN_MOTION_DOT = .309869E-2
MEAN_MOTION_DDOT = 0

CCSDS_OMM_VERS = 2.0
CREATION_DATE  = 
ORIGINATOR     = 

OBJECT_NAME    = STARLINK-36573
OBJECT_ID      = 2026-014H
CENTER_NAME    = EARTH
REF_FRAME      = TEME
TIME_SYSTEM    = UTC
MEAN_ELEMENT_THEORY = SGP/SGP4

EPOCH          = 2026-02-18T14:00:03.000384
MEAN_MOTION    = 15.75095056
ECCENTRICITY   = .00014691
INCLINATION    = 97.2838
RA_OF_ASC_NODE = 293.5973
ARG_OF_PERICENTER = 95.6888
MEAN_ANOMALY   = 31.2685

EPHEMERIS_TYPE = 0
CLASSIFICATION_TYPE = U
NORAD_CAT_ID   = 67539
ELEMENT_SET_NO = 999
REV_AT_EPOCH   = 561
BSTAR          = .66052469E-3
MEAN_MOTION_DOT = .99135E-3
MEAN_MOTION_DDOT = 0

CCSDS_OMM_VERS = 2.0
CREATION_DATE  = 
ORIGINATOR     = 

OBJECT_NAME    = STARLINK-36585
OBJECT_ID      = 2026-014J
CENTER_NAME    = EARTH
REF_FRAME      = TEME
TIME_SYSTEM    = UTC
MEAN_ELEMENT_THEORY = SGP/SGP4

EPOCH          = 2026-02-18T14:13:34.924512
MEAN_MOTION    = 15.75279304
ECCENTRICITY   = .00013746
INCLINATION    = 97.2843
RA_OF_ASC_NODE = 293.5266
ARG_OF_PERICENTER = 87.7295
MEAN_ANOMALY   = 272.4127

EPHEMERIS_TYPE = 0
CLASSIFICATION_TYPE = U
NORAD_CAT_ID   = 67540
ELEMENT_SET_NO = 999
REV_AT_EPOCH   = 556
BSTAR          = .14700312E-2
MEAN_MOTION_DOT = .225904E-2
MEAN_MOTION_DDOT = 0

CCSDS_OMM_VERS = 2.0
CREATION_DATE  = 
ORIGINATOR     = 

OBJECT_NAME    = STARLINK-36579
OBJECT_ID      = 2026-014K
CENTER_NAME    = EARTH
REF_FRAME      = TEME
TIME_SYSTEM    = UTC
MEAN_ELEMENT_THEORY = SGP/SGP4

EPOCH          = 2026-02-18T14:02:24.265248
MEAN_MOTION    = 15.75280315
ECCENTRICITY   = .00014271
INCLINATION    = 97.2824
RA_OF_ASC_NODE = 293.5377
ARG_OF_PERICENTER = 75.8088
MEAN_ANOMALY   = 284.3336

EPHEMERIS_TYPE = 0
CLASSIFICATION_TYPE = U
NORAD_CAT_ID   = 67541
ELEMENT_SET_NO = 999
REV_AT_EPOCH   = 556
BSTAR          = .16451704E-2
MEAN_MOTION_DOT = .253677E-2
MEAN_MOTION_DDOT = 0

CCSDS_OMM_VERS = 2.0
CREATION_DATE  = 
ORIGINATOR     = 

OBJECT_NAME    = STARLINK-35934
OBJECT_ID      = 2026-014L
CENTER_NAME    = EARTH
REF_FRAME      = TEME
TIME_SYSTEM    = UTC
MEAN_ELEMENT_THEORY = SGP/SGP4

EPOCH          = 2026-02-18T14:00:03.000384
MEAN_MOTION    = 15.75182749
ECCENTRICITY   = .00018657
INCLINATION    = 97.2838
RA_OF_ASC_NODE = 293.6215
ARG_OF_PERICENTER = 102.2560
MEAN_ANOMALY   = 80.6158

EPHEMERIS_TYPE = 0
CLASSIFICATION_TYPE = U
NORAD_CAT_ID   = 67542
ELEMENT_SET_NO = 999
REV_AT_EPOCH   = 560
BSTAR          = -.98530686E-4
MEAN_MOTION_DOT = -.14797E-3
MEAN_MOTION_DDOT = 0

CCSDS_OMM_VERS = 2.0
CREATION_DATE  = 
ORIGINATOR     = 

OBJECT_NAME    = STARLINK-36581
OBJECT_ID      = 2026-014M
CENTER_NAME    = EARTH
REF_FRAME      = TEME
TIME_SYSTEM    = UTC
MEAN_ELEMENT_THEORY = SGP/SGP4

EPOCH          = 2026-02-18T14:00:03.000384
MEAN_MOTION    = 15.75191287
ECCENTRICITY   = .00015582
INCLINATION    = 97.2841
RA_OF_ASC_NODE = 293.6023
ARG_OF_PERICENTER = 95.8555
MEAN_ANOMALY   = 43.0117

EPHEMERIS_TYPE = 0
CLASSIFICATION_TYPE = U
NORAD_CAT_ID   = 67543
ELEMENT_SET_NO = 999
REV_AT_EPOCH   = 561
BSTAR          = .4371907E-4
MEAN_MOTION_DOT = .6397E-4
MEAN_MOTION_DDOT = 0

CCSDS_OMM_VERS = 2.0
CREATION_DATE  = 
ORIGINATOR     = 

OBJECT_NAME    = STARLINK-36565
OBJECT_ID      = 2026-014N
CENTER_NAME    = EARTH
REF_FRAME      = TEME
TIME_SYSTEM    = UTC
MEAN_ELEMENT_THEORY = SGP/SGP4

EPOCH          = 2026-02-18T15:04:54.945408
MEAN_MOTION    = 15.75330746
ECCENTRICITY   = .00024784
INCLINATION    = 97.2844
RA_OF_ASC_NODE = 293.6359
ARG_OF_PERICENTER = 138.5223
MEAN_ANOMALY   = 221.6231

EPHEMERIS_TYPE = 0
CLASSIFICATION_TYPE = U
NORAD_CAT_ID   = 67544
ELEMENT_SET_NO = 999
REV_AT_EPOCH   = 557
BSTAR          = .22550128E-2
MEAN_MOTION_DOT = .352629E-2
MEAN_MOTION_DDOT = 0

CCSDS_OMM_VERS = 2.0
CREATION_DATE  = 
ORIGINATOR     = 

OBJECT_NAME    = STARLINK-36583
OBJECT_ID      = 2026-014P
CENTER_NAME    = EARTH
REF_FRAME      = TEME
TIME_SYSTEM    = UTC
MEAN_ELEMENT_THEORY = SGP/SGP4

EPOCH          = 2026-02-18T14:07:59.603520
MEAN_MOTION    = 15.75235901
ECCENTRICITY   = .00016455
INCLINATION    = 97.2832
RA_OF_ASC_NODE = 293.5311
ARG_OF_PERICENTER = 91.1945
MEAN_ANOMALY   = 268.9509

EPHEMERIS_TYPE = 0
CLASSIFICATION_TYPE = U
NORAD_CAT_ID   = 67545
ELEMENT_SET_NO = 999
REV_AT_EPOCH   = 556
BSTAR          = .78314707E-3
MEAN_MOTION_DOT = .118553E-2
MEAN_MOTION_DDOT = 0

