STARLINK-36576          
1 67534U 26014C   26049.58336806  .00000518  00000+0  43385-5 0  9999
2 67534  97.2836 293.5807 0001567  89.1198 353.7409 15.75200743  5618
STARLINK-36574          
1 67535U 26014D   26049.58336806 -.01882193  00000+0 -13411-1 0  9993
2 67535  97.2833 293.6081 0001945  71.0999  76.5438 15.76892767  5616
STARLINK-36572          
1 67536U 26014E   26049.59100171  .00269271  00000+0  17420-2 0  9997
2 67536  97.2818 293.5308 0001919 106.2080 253.9397 15.75294010  5569
STARLINK-36561          
1 67537U 26014F   26049.59699926  .00330641  00000+0  21210-2 0  9991
2 67537  97.2847 293.5225 0002165 132.3558 227.7891 15.75319240  5565
STARLINK-36397          
1 67538U 26014G   26049.60088299  .00309869  00000+0  19938-2 0  9991
2 67538  97.2845 293.5178 0001592 106.4365 253.7075 15.75306764  5562
STARLINK-36573          
1 67539U 26014H   26049.58336806  .00099135  00000+0  66052-3 0  9991
2 67539  97.2838 293.5973 0001469  95.6888  31.2685 15.75095056  5611
STARLINK-36585          
1 67540U 26014J   26049.59276533  .00225904  00000+0  14700-2 0  9991
2 67540  97.2843 293.5266 0001374  87.7295 272.4127 15.75279304  5567
STARLINK-36579          
1 67541U 26014K   26049.58500307  .00253677  00000+0  16452-2 0  9994
2 67541  97.2824 293.5377 0001427  75.8088 284.3336 15.75280315  5565
STARLINK-35934          
1 67542U 26014L   26049.58336806 -.00014797  00000+0 -98531-4 0  9996
2 67542  97.2838 293.6215 0001865 102.2560  80.6158 15.75182749  5605
STARLINK-36581          
1 67543U 26014M   26049.58336806  .00006397  00000+0  43719-4 0  9990
2 67543  97.2841 293.6023 0001558  95.8555  43.0117 15.75191287  5613
STARLINK-36565          
1 67544U 26014N   26049.62841372  .00352629  00000+0  22550-2 0  9995
2 67544  97.2844 293.6359 0002478 138.5223 221.6231 15.75330746  5579
STARLINK-36583          
1 67545U 26014P   26049.58888430  .00118553  00000+0  78315-3 0  9994
2 67545  97.2832 293.5311 0001645  91.1945 268.9509 15.75235901  5562
